{
  "type": "FeatureCollection",
  "features": [
    {
      "type": "Feature",
      "properties": {
        "norad_id": 51444,
        "name": "CSG-2",
        "group": "resource",
        "lat": 1.3919263046255475,
        "lon": 161.70249391446055,
        "alt_km": 625.2942916542306,
        "timestamp": "2025-12-06T11:28:10.687073+00:00",
        "meta_object_name": "CSG-2",
        "meta_object_id": "2022-008A",
        "meta_epoch": "2025-12-05T22:30:04.584384",
        "meta_mean_motion": 14.82152698,
        "meta_eccentricity": 0.00015003,
        "meta_inclination": 97.8814,
        "meta_ra_of_asc_node": 161.3633,
        "meta_arg_of_pericenter": 88.8517,
        "meta_mean_anomaly": 271.2868,
        "meta_ephemeris_type": 0,
        "meta_classification_type": "U",
        "meta_norad_cat_id": 51444,
        "meta_element_set_no": 999,
        "meta_rev_at_epoch": 20796,
        "meta_bstar": 0.00011371251,
        "meta_mean_motion_dot": 8.53e-06,
        "meta_mean_motion_ddot": 0,
        "tle_line1": "1 51444U 22008A   25339.93755306  .00000853  00000+0  11371-3 0  9991",
        "tle_line2": "2 51444  97.8814 161.3633 0001500  88.8517 271.2868 14.82152698207967"
      },
      "geometry": {
        "type": "Point",
        "coordinates": [
          161.70249391446055,
          1.3919263046255475
        ]
      }
    },
    {
      "type": "Feature",
      "properties": {
        "norad_id": 52912,
        "name": "GAOFEN-12 03",
        "group": "resource",
        "lat": -24.151845813549194,
        "lon": -128.48239925826417,
        "alt_km": 636.3688062540123,
        "timestamp": "2025-12-06T11:28:10.687084+00:00",
        "meta_object_name": "GAOFEN-12 03",
        "meta_object_id": "2022-069A",
        "meta_epoch": "2025-12-05T22:35:42.417888",
        "meta_mean_motion": 14.79583435,
        "meta_eccentricity": 0.00023162,
        "meta_inclination": 97.849,
        "meta_ra_of_asc_node": 227.4473,
        "meta_arg_of_pericenter": 73.77,
        "meta_mean_anomaly": 286.3767,
        "meta_ephemeris_type": 0,
        "meta_classification_type": "U",
        "meta_norad_cat_id": 52912,
        "meta_element_set_no": 999,
        "meta_rev_at_epoch": 18603,
        "meta_bstar": 0.00029981334,
        "meta_mean_motion_dot": 2.195e-05,
        "meta_mean_motion_ddot": 0,
        "tle_line1": "1 52912U 22069A   25339.94146317  .00002195  00000+0  29981-3 0  9993",
        "tle_line2": "2 52912  97.8490 227.4473 0002316  73.7700 286.3767 14.79583435186039"
      },
      "geometry": {
        "type": "Point",
        "coordinates": [
          -128.48239925826417,
          -24.151845813549194
        ]
      }
    },
    {
      "type": "Feature",
      "properties": {
        "norad_id": 54754,
        "name": "SWOT",
        "group": "resource",
        "lat": -60.88632585509426,
        "lon": -87.80487200553132,
        "alt_km": 900.415625800666,
        "timestamp": "2025-12-06T11:28:10.687095+00:00",
        "meta_object_name": "SWOT",
        "meta_object_id": "2022-173A",
        "meta_epoch": "2025-12-05T22:03:10.725696",
        "meta_mean_motion": 14.00173113,
        "meta_eccentricity": 3.47e-05,
        "meta_inclination": 77.61,
        "meta_ra_of_asc_node": 296.1977,
        "meta_arg_of_pericenter": 133.8234,
        "meta_mean_anomaly": 226.2946,
        "meta_ephemeris_type": 0,
        "meta_classification_type": "U",
        "meta_norad_cat_id": 54754,
        "meta_element_set_no": 999,
        "meta_rev_at_epoch": 15210,
        "meta_bstar": 0.00011405967,
        "meta_mean_motion_dot": 1.66e-06,
        "meta_mean_motion_ddot": 0,
        "tle_line1": "1 54754U 22173A   25339.91887414  .00000166  00000+0  11406-3 0  9991",
        "tle_line2": "2 54754  77.6100 296.1977 0000347 133.8234 226.2946 14.00173113152108"
      },
      "geometry": {
        "type": "Point",
        "coordinates": [
          -87.80487200553132,
          -60.88632585509426
        ]
      }
    },
    {
      "type": "Feature",
      "properties": {
        "norad_id": 57654,
        "name": "GAOFEN-12 04",
        "group": "resource",
        "lat": 36.170136114490184,
        "lon": 82.16537704875205,
        "alt_km": 627.5713872586302,
        "timestamp": "2025-12-06T11:28:10.687105+00:00",
        "meta_object_name": "GAOFEN-12 04",
        "meta_object_id": "2023-123A",
        "meta_epoch": "2025-12-05T23:27:48.013056",
        "meta_mean_motion": 14.79668585,
        "meta_eccentricity": 0.00014263,
        "meta_inclination": 97.912,
        "meta_ra_of_asc_node": 255.8374,
        "meta_arg_of_pericenter": 72.6094,
        "meta_mean_anomaly": 287.5274,
        "meta_ephemeris_type": 0,
        "meta_classification_type": "U",
        "meta_norad_cat_id": 57654,
        "meta_element_set_no": 999,
        "meta_rev_at_epoch": 12405,
        "meta_bstar": 0.0003699442,
        "meta_mean_motion_dot": 2.725e-05,
        "meta_mean_motion_ddot": 0,
        "tle_line1": "1 57654U 23123A   25339.97763904  .00002725  00000+0  36994-3 0  9994",
        "tle_line2": "2 57654  97.9120 255.8374 0001426  72.6094 287.5274 14.79668585124058"
      },
      "geometry": {
        "type": "Point",
        "coordinates": [
          82.16537704875205,
          36.170136114490184
        ]
      }
    },
    {
      "type": "Feature",
      "properties": {
        "norad_id": 59065,
        "name": "PARS 1",
        "group": "resource",
        "lat": -62.18646432291544,
        "lon": 116.89185129597071,
        "alt_km": 458.7523444689732,
        "timestamp": "2025-12-06T11:28:10.687115+00:00",
        "meta_object_name": "PARS 1",
        "meta_object_id": "2024-039Q",
        "meta_epoch": "2025-12-05T21:56:57.025824",
        "meta_mean_motion": 15.40747574,
        "meta_eccentricity": 0.00126931,
        "meta_inclination": 97.4626,
        "meta_ra_of_asc_node": 310.7041,
        "meta_arg_of_pericenter": 92.436,
        "meta_mean_anomaly": 267.8339,
        "meta_ephemeris_type": 0,
        "meta_classification_type": "U",
        "meta_norad_cat_id": 59065,
        "meta_element_set_no": 999,
        "meta_rev_at_epoch": 9883,
        "meta_bstar": 0.00041023472,
        "meta_mean_motion_dot": 0.0001675,
        "meta_mean_motion_ddot": 0,
        "tle_line1": "1 59065U 24039Q   25339.91454891  .00016750  00000+0  41023-3 0  9997",
        "tle_line2": "2 59065  97.4626 310.7041 0012693  92.4360 267.8339 15.40747574 98832"
      },
      "geometry": {
        "type": "Point",
        "coordinates": [
          116.89185129597071,
          -62.18646432291544
        ]
      }
    },
    {
      "type": "Feature",
      "properties": {
        "norad_id": 59371,
        "name": "RESURS-P 4",
        "group": "resource",
        "lat": -43.393288441986805,
        "lon": 100.01988379079994,
        "alt_km": 477.890210437954,
        "timestamp": "2025-12-06T11:28:10.687125+00:00",
        "meta_object_name": "RESURS-P 4",
        "meta_object_id": "2024-061A",
        "meta_epoch": "2025-12-05T21:57:19.171008",
        "meta_mean_motion": 15.32003678,
        "meta_eccentricity": 0.00019742,
        "meta_inclination": 97.2539,
        "meta_ra_of_asc_node": 286.385,
        "meta_arg_of_pericenter": 53.9122,
        "meta_mean_anomaly": 306.2302,
        "meta_ephemeris_type": 0,
        "meta_classification_type": "U",
        "meta_norad_cat_id": 59371,
        "meta_element_set_no": 999,
        "meta_rev_at_epoch": 9416,
        "meta_bstar": 0.00020454408,
        "meta_mean_motion_dot": 6.244e-05,
        "meta_mean_motion_ddot": 0,
        "tle_line1": "1 59371U 24061A   25339.91480522  .00006244  00000+0  20454-3 0  9994",
        "tle_line2": "2 59371  97.2539 286.3850 0001974  53.9122 306.2302 15.32003678 94168"
      },
      "geometry": {
        "type": "Point",
        "coordinates": [
          100.01988379079994,
          -43.393288441986805
        ]
      }
    },
    {
      "type": "Feature",
      "properties": {
        "norad_id": 59625,
        "name": "LEGION 1",
        "group": "resource",
        "lat": 77.60899737369265,
        "lon": 18.19491126241352,
        "alt_km": 509.8241146913342,
        "timestamp": "2025-12-06T11:28:10.687136+00:00",
        "meta_object_name": "LEGION 1",
        "meta_object_id": "2024-081A",
        "meta_epoch": "2025-12-05T22:26:52.783296",
        "meta_mean_motion": 15.16377689,
        "meta_eccentricity": 0.00044799,
        "meta_inclination": 97.5225,
        "meta_ra_of_asc_node": 54.6326,
        "meta_arg_of_pericenter": 346.1078,
        "meta_mean_anomaly": 14.0031,
        "meta_ephemeris_type": 0,
        "meta_classification_type": "U",
        "meta_norad_cat_id": 59625,
        "meta_element_set_no": 999,
        "meta_rev_at_epoch": 8824,
        "meta_bstar": 0.00041093004,
        "meta_mean_motion_dot": 7.915e-05,
        "meta_mean_motion_ddot": 0,
        "tle_line1": "1 59625U 24081A   25339.93533314  .00007915  00000+0  41093-3 0  9996",
        "tle_line2": "2 59625  97.5225  54.6326 0004479 346.1078  14.0031 15.16377689 88242"
      },
      "geometry": {
        "type": "Point",
        "coordinates": [
          18.19491126241352,
          77.60899737369265
        ]
      }
    }
  ]
}